LANDSAT 9               
1 49260U 21088A   24100.91367740  .00000528  00000+0  12725-3 0  9998
2 49260  98.1914 171.6752 0001384  84.0101 276.1255 14.57123112134759
